ONEWEB-0687             
1 61595U 24188B   25164.58334491  .00035869  00000+0  75767-1 0  9997
2 61595  87.9590  79.2972 0003736 123.0183  37.3912 13.30642964  5984
ONEWEB-0688             
1 61596U 24188C   25164.58334491  .00034240  00000+0  72294-1 0  9992
2 61596  87.9603  79.2972 0001416  81.6718 343.6070 13.30684532  5745
ONEWEB-0689             
1 61597U 24188D   25164.52477338 -.00000454  00000+0 -13162-2 0  9997
2 61597  87.8810  94.5711 0002235  71.4798 288.6573 13.11416664 36132
ONEWEB-0690             
1 61598U 24188E   25164.53493519 -.00000301  00000+0 -88511-3 0  9990
2 61598  87.8859  94.5084 0001732 100.9865 259.1458 13.11416442 36312
ONEWEB-0691             
1 61599U 24188F   25164.83507467 -.00000493  00000+0 -14281-2 0  9996
2 61599  87.8755  94.4841 0001636  69.9664 290.1640 13.11405385 34480
ONEWEB-0692             
1 61600U 24188G   25164.77911588  .00000273  00000+0  73386-3 0  9991
2 61600  87.8832  94.5411 0002954  84.3165 275.8299 13.11417299 34403
ONEWEB-0693             
1 61601U 24188H   25164.58334491  .00034442  00000+0  72660-1 0  9990
2 61601  87.9593  79.3194 0003283 145.2649 298.5458 13.30737784 35559
ONEWEB-0695             
1 61602U 24188J   25164.52646054 -.00000530  00000+0 -15319-2 0  9998
2 61602  87.8844  94.5751 0002560  74.6488 285.4923 13.11414723 36141
